start=new Date('2023-03-09T00:00:00.000Z').valueOf();
sats=[{"RA_OF_ASC_NODE":"90.9434","GP_ID":"227718363","APOAPSIS":"548.362","SEMIMAJOR_AXIS":"6925.323","BSTAR":"0.00105170000000","PERIAPSIS":"546.015","CENTER_NAME":"EARTH","TLE_LINE2":"2 44772  53.0545  90.9434 0001695  89.8960 270.2223 15.06408193183139","SITE":"AFETR","DECAY_DATE":null,"LAUNCH_DATE":"2019-11-11","FILE":"3855077","PERIOD":"95.592","MEAN_MOTION_DDOT":"0.0000000000000","INCLINATION":"53.0545","TLE_LINE1":"1 44772U 19074BM  23067.75652316  .00015422  00000-0  10517-2 0  9998","REV_AT_EPOCH":"18313","CLASSIFICATION_TYPE":"U","ECCENTRICITY":"0.00016950","ARG_OF_PERICENTER":"89.8960","OBJECT_TYPE":"PAYLOAD","NORAD_CAT_ID":"44772","MEAN_ELEMENT_THEORY":"SGP4","EPOCH":"2023-03-08T18:09:23.601024","MEAN_MOTION":"15.06408193","EPHEMERIS_TYPE":"0","REF_FRAME":"TEME","COUNTRY_CODE":"US","OBJECT_ID":"2019-074BM","ELEMENT_SET_NO":"999","TIME_SYSTEM":"UTC","RCS_SIZE":"LARGE","MEAN_MOTION_DOT":"0.00015422","OBJECT_NAME":"STARLINK-1068","MEAN_ANOMALY":"270.2223"},{"OBJECT_TYPE":"PAYLOAD","MEAN_ELEMENT_THEORY":"SGP4","NORAD_CAT_ID":"44914","EPOCH":"2023-03-08T16:57:43.997472","TLE_LINE1":"1 44914U 20001A   23067.70675923  .00001984  00000-0  15204-3 0  9999","INCLINATION":"53.0482","CLASSIFICATION_TYPE":"U","REV_AT_EPOCH":"17450","ECCENTRICITY":"0.00014720","ARG_OF_PERICENTER":"89.9390","ELEMENT_SET_NO":"999","RCS_SIZE":"LARGE","TIME_SYSTEM":"UTC","OBJECT_NAME":"STARLINK-1073","MEAN_MOTION_DOT":"0.00001984","MEAN_ANOMALY":"270.1768","MEAN_MOTION":"15.06398983","REF_FRAME":"TEME","EPHEMERIS_TYPE":"0","COUNTRY_CODE":"US","OBJECT_ID":"2020-001A","CENTER_NAME":"EARTH","TLE_LINE2":"2 44914  53.0482 231.1656 0001472  89.9390 270.1768 15.06398983174502","APOAPSIS":"548.236","GP_ID":"227718627","RA_OF_ASC_NODE":"231.1656","PERIAPSIS":"546.197","BSTAR":"0.00015204000000","SEMIMAJOR_AXIS":"6925.352","DECAY_DATE":null,"FILE":"3855077","LAUNCH_DATE":"2020-01-07","MEAN_MOTION_DDOT":"0.0000000000000","PERIOD":"95.592","SITE":"AFETR"},{"EPOCH":"2023-03-08T22:26:49.033536","OBJECT_TYPE":"PAYLOAD","MEAN_ELEMENT_THEORY":"SGP4","NORAD_CAT_ID":"44915","ECCENTRICITY":"0.00016600","ARG_OF_PERICENTER":"88.2242","TLE_LINE1":"1 44915U 20001B   23067.93528974  .00003515  00000-0  25473-3 0  9999","INCLINATION":"53.0536","REV_AT_EPOCH":"17454","CLASSIFICATION_TYPE":"U","MEAN_MOTION_DOT":"0.00003515","OBJECT_NAME":"STARLINK-1084","MEAN_ANOMALY":"271.8937","ELEMENT_SET_NO":"999","RCS_SIZE":"LARGE","TIME_SYSTEM":"UTC","COUNTRY_CODE":"US","OBJECT_ID":"2020-001B","MEAN_MOTION":"15.06402815","REF_FRAME":"TEME","EPHEMERIS_TYPE":"0","TLE_LINE2":"2 44915  53.0536 230.1354 0001660  88.2242 271.8937 15.06402815174544","CENTER_NAME":"EARTH","APOAPSIS":"548.355","GP_ID":"227697955","RA_OF_ASC_NODE":"230.1354","BSTAR":"0.00025473000000","PERIAPSIS":"546.055","SEMIMAJOR_AXIS":"6925.340","MEAN_MOTION_DDOT":"0.0000000000000","PERIOD":"95.592","DECAY_DATE":null,"FILE":"3855017","LAUNCH_DATE":"2020-01-07","SITE":"AFETR"},{"OBJECT_TYPE":"PAYLOAD","MEAN_ELEMENT_THEORY":"SGP4","NORAD_CAT_ID":"44917","EPOCH":"2023-03-08T20:56:35.212992","TLE_LINE1":"1 44917U 20001D   23067.87262978  .00002578  00000-0  19191-3 0  9991","INCLINATION":"53.0524","CLASSIFICATION_TYPE":"U","REV_AT_EPOCH":"17453","ECCENTRICITY":"0.00014730","ARG_OF_PERICENTER":"94.9459","ELEMENT_SET_NO":"999","RCS_SIZE":"LARGE","TIME_SYSTEM":"UTC","OBJECT_NAME":"STARLINK-1098","MEAN_MOTION_DOT":"0.00002578","MEAN_ANOMALY":"265.1698","MEAN_MOTION":"15.06400345","REF_FRAME":"TEME","EPHEMERIS_TYPE":"0","COUNTRY_CODE":"US","OBJECT_ID":"2020-001D","CENTER_NAME":"EARTH","TLE_LINE2":"2 44917  53.0524 230.4207 0001473  94.9459 265.1698 15.06400345174534","APOAPSIS":"548.233","RA_OF_ASC_NODE":"230.4207","GP_ID":"227719622","BSTAR":"0.00019191000000","PERIAPSIS":"546.192","SEMIMAJOR_AXIS":"6925.348","DECAY_DATE":null,"FILE":"3855077","LAUNCH_DATE":"2020-01-07","PERIOD":"95.592","MEAN_MOTION_DDOT":"0.0000000000000","SITE":"AFETR"},{"EPOCH":"2023-03-08T18:05:22.735968","OBJECT_TYPE":"PAYLOAD","NORAD_CAT_ID":"44918","MEAN_ELEMENT_THEORY":"SGP4","ECCENTRICITY":"0.00016890","ARG_OF_PERICENTER":"104.8062","INCLINATION":"53.0540","TLE_LINE1":"1 44918U 20001E   23067.75373537  .00003043  00000-0  22306-3 0  9993","CLASSIFICATION_TYPE":"U","REV_AT_EPOCH":"17525","OBJECT_NAME":"STARLINK-1099","MEAN_MOTION_DOT":"0.00003043","MEAN_ANOMALY":"255.3114","ELEMENT_SET_NO":"999","TIME_SYSTEM":"UTC","RCS_SIZE":"LARGE","COUNTRY_CODE":"US","OBJECT_ID":"2020-001E","MEAN_MOTION":"15.06402000","EPHEMERIS_TYPE":"0","REF_FRAME":"TEME","TLE_LINE2":"2 44918  53.0540 230.9855 0001689 104.8062 255.3114 15.06402000175251","CENTER_NAME":"EARTH","GP_ID":"227718377","RA_OF_ASC_NODE":"230.9855","APOAPSIS":"548.377","SEMIMAJOR_AXIS":"6925.342","BSTAR":"0.00022306000000","PERIAPSIS":"546.038","MEAN_MOTION_DDOT":"0.0000000000000","PERIOD":"95.592","DECAY_DATE":null,"LAUNCH_DATE":"2020-01-07","FILE":"3855077","SITE":"AFETR"},{"OBJECT_NAME":"STARLINK-1102","MEAN_MOTION_DOT":"0.00056258","MEAN_ANOMALY":"79.2122","ELEMENT_SET_NO":"999","RCS_SIZE":"LARGE","TIME_SYSTEM":"UTC","COUNTRY_CODE":"US","OBJECT_ID":"2020-001G","MEAN_MOTION":"15.13393803","REF_FRAME":"TEME","EPHEMERIS_TYPE":"0","EPOCH":"2023-03-08T21:29:15.495936","OBJECT_TYPE":"PAYLOAD","MEAN_ELEMENT_THEORY":"SGP4","NORAD_CAT_ID":"44920","ECCENTRICITY":"0.00013650","ARG_OF_PERICENTER":"280.8716","TLE_LINE1":"1 44920U 20001G   23067.89531824  .00056258  00000-0  31077-2 0  9996","INCLINATION":"53.0514","CLASSIFICATION_TYPE":"U","REV_AT_EPOCH":"17457","MEAN_MOTION_DDOT":"0.0000000000000","PERIOD":"95.150","DECAY_DATE":null,"FILE":"3855019","LAUNCH_DATE":"2020-01-07","SITE":"AFETR","TLE_LINE2":"2 44920  53.0514 227.4975 0001365 280.8716  79.2122 15.13393803174575","CENTER_NAME":"EARTH","APOAPSIS":"526.804","RA_OF_ASC_NODE":"227.4975","GP_ID":"227697868","BSTAR":"0.00310770000000","PERIAPSIS":"524.919","SEMIMAJOR_AXIS":"6903.996"},{"CENTER_NAME":"EARTH","TLE_LINE2":"2 44921  53.0517 230.4942 0001464  89.1486 270.9671 15.06400099174501","PERIAPSIS":"546.199","BSTAR":"0.00007036500000","SEMIMAJOR_AXIS":"6925.348","APOAPSIS":"548.227","GP_ID":"227718877","RA_OF_ASC_NODE":"230.4942","FILE":"3855077","LAUNCH_DATE":"2020-01-07","DECAY_DATE":null,"PERIOD":"95.592","MEAN_MOTION_DDOT":"0.0000000000000","SITE":"AFETR","MEAN_ELEMENT_THEORY":"SGP4","NORAD_CAT_ID":"44921","OBJECT_TYPE":"PAYLOAD","EPOCH":"2023-03-08T20:28:41.003040","REV_AT_EPOCH":"17450","CLASSIFICATION_TYPE":"U","TLE_LINE1":"1 44921U 20001H   23067.85325235  .00000767  00000-0  70365-4 0  9999","INCLINATION":"53.0517","ARG_OF_PERICENTER":"89.1486","ECCENTRICITY":"0.00014640","RCS_SIZE":"LARGE","TIME_SYSTEM":"UTC","ELEMENT_SET_NO":"999","MEAN_ANOMALY":"270.9671","OBJECT_NAME":"STARLINK-1103","MEAN_MOTION_DOT":"0.00000767","REF_FRAME":"TEME","EPHEMERIS_TYPE":"0","MEAN_MOTION":"15.06400099","OBJECT_ID":"2020-001H","COUNTRY_CODE":"US"},{"APOAPSIS":"548.257","GP_ID":"227719123","RA_OF_ASC_NODE":"230.9500","BSTAR":"0.00037407000000","PERIAPSIS":"546.124","SEMIMAJOR_AXIS":"6925.325","CENTER_NAME":"EARTH","TLE_LINE2":"2 44922  53.0514 230.9500 0001540  95.5973 264.5191 15.06407680174511","SITE":"AFETR","DECAY_DATE":null,"FILE":"3855077","LAUNCH_DATE":"2020-01-07","MEAN_MOTION_DDOT":"0.0000000000000","PERIOD":"95.592","TLE_LINE1":"1 44922U 20001J   23067.75468768  .00005296  00000-0  37407-3 0  9999","INCLINATION":"53.0514","REV_AT_EPOCH":"17451","CLASSIFICATION_TYPE":"U","ECCENTRICITY":"0.00015400","ARG_OF_PERICENTER":"95.5973","OBJECT_TYPE":"PAYLOAD","MEAN_ELEMENT_THEORY":"SGP4","NORAD_CAT_ID":"44922","EPOCH":"2023-03-08T18:06:45.015552","MEAN_MOTION":"15.06407680","REF_FRAME":"TEME","EPHEMERIS_TYPE":"0","COUNTRY_CODE":"US","OBJECT_ID":"2020-001J","ELEMENT_SET_NO":"999","RCS_SIZE":"LARGE","TIME_SYSTEM":"UTC","MEAN_MOTION_DOT":"0.00005296","OBJECT_NAME":"STARLINK-1104","MEAN_ANOMALY":"264.5191"},{"APOAPSIS":"537.477","RA_OF_ASC_NODE":"230.4210","GP_ID":"227717877","BSTAR":"0.00304260000000","PERIAPSIS":"534.792","SEMIMAJOR_AXIS":"6914.269","CENTER_NAME":"EARTH","TLE_LINE2":"2 44923  53.0557 230.4210 0001942 190.2491 169.8461 15.10022148174510","SITE":"AFETR","DECAY_DATE":null,"FILE":"3855077","LAUNCH_DATE":"2020-01-07","MEAN_MOTION_DDOT":"0.0000000000000","PERIOD":"95.363","TLE_LINE1":"1 44923U 20001K   23067.70931925  .00050089  00000-0  30426-2 0  9998","INCLINATION":"53.0557","CLASSIFICATION_TYPE":"U","REV_AT_EPOCH":"17451","ARG_OF_PERICENTER":"190.2491","ECCENTRICITY":"0.00019420","OBJECT_TYPE":"PAYLOAD","MEAN_ELEMENT_THEORY":"SGP4","NORAD_CAT_ID":"44923","EPOCH":"2023-03-08T17:01:25.183200","MEAN_MOTION":"15.10022148","REF_FRAME":"TEME","EPHEMERIS_TYPE":"0","COUNTRY_CODE":"US","OBJECT_ID":"2020-001K","ELEMENT_SET_NO":"999","RCS_SIZE":"LARGE","TIME_SYSTEM":"UTC","MEAN_MOTION_DOT":"0.00050089","OBJECT_NAME":"STARLINK-1106","MEAN_ANOMALY":"169.8461"},{"SITE":"AFETR","FILE":"3855077","LAUNCH_DATE":"2020-01-07","DECAY_DATE":null,"PERIOD":"95.593","MEAN_MOTION_DDOT":"0.0000000000000","PERIAPSIS":"545.819","BSTAR":"0.00031349000000","SEMIMAJOR_AXIS":"6925.382","APOAPSIS":"548.675","RA_OF_ASC_NODE":"232.0879","GP_ID":"227718628","CENTER_NAME":"EARTH","TLE_LINE2":"2 44924  53.0507 232.0879 0002062 117.0076 243.1124 15.06388981174477","REF_FRAME":"TEME","EPHEMERIS_TYPE":"0","MEAN_MOTION":"15.06388981","OBJECT_ID":"2020-001L","COUNTRY_CODE":"US","RCS_SIZE":"LARGE","TIME_SYSTEM":"UTC","ELEMENT_SET_NO":"999","MEAN_ANOMALY":"243.1124","MEAN_MOTION_DOT":"0.00004389","OBJECT_NAME":"STARLINK-1111","CLASSIFICATION_TYPE":"U","REV_AT_EPOCH":"17447","TLE_LINE1":"1 44924U 20001L   23067.50403980  .00004389  00000-0  31349-3 0  9990","INCLINATION":"53.0507","ARG_OF_PERICENTER":"117.0076","ECCENTRICITY":"0.00020620","MEAN_ELEMENT_THEORY":"SGP4","NORAD_CAT_ID":"44924","OBJECT_TYPE":"PAYLOAD","EPOCH":"2023-03-08T12:05:49.038720"}];
